{"type":"FeatureCollection","features":[{"type":"Feature","geometry":{"type":"Point","coordinates":[93.1453,26.7246]},"properties":{"id":"acf76a2149d7","kind":"seizure","date":"2026-09-21","summary":"Seizure · Rhinoceros · Biswanath","species":"rhino","n_sources":7,"country":"IN","level":"district"}},{"type":"Feature","geometry":{"type":"Point","coordinates":[73.86,18.52]},"properties":{"id":"258ece6e1381","kind":"arrest","date":"2026-09-21","summary":"Arrest · Monitor lizard · Pune","species":"monitor_lizard","n_sources":1,"country":"IN","level":"city"}},{"type":"Feature","geometry":{"type":"Point","coordinates":[93.9119,26.4092]},"properties":{"id":"8ec3f8856149","kind":"seizure","date":"2026-09-20","summary":"Seizure · Tokay gecko · 30 geckos · Golaghat","species":"tokay_gecko","n_sources":9,"country":"IN","level":"district"}},{"type":"Feature","geometry":{"type":"Point","coordinates":[85.1,20.95]},"properties":{"id":"20fa6c4ba6dd","kind":"arrest","date":"2026-09-19","summary":"Arrest · Elephant (ivory) · Odisha","species":"elephant","n_sources":1,"country":"IN","level":"state"}},{"type":"Feature","geometry":{"type":"Point","coordinates":[72.83,21.17]},"properties":{"id":"24b489bdb22d","kind":"seizure","date":"2026-09-18","summary":"Seizure · Turtles & tortoises · 18 tortoises · Surat","species":"turtles","n_sources":1,"country":"IN","level":"city"}},{"type":"Feature","geometry":{"type":"Point","coordinates":[83.9094,20.1997]},"properties":{"id":"ec7f6599026a","kind":"seizure","date":"2026-09-18","summary":"Seizure · Leopard · 2 skins · Baliguda","species":"leopard","n_sources":3,"country":"IN","level":"city"}},{"type":"Feature","geometry":{"type":"Point","coordinates":[115.3502,-2.9823]},"properties":{"id":"64c4b612a64f","kind":"arrest","date":"2026-09-15","summary":"Arrest · Turtles & tortoises · Belimbing","species":"turtles","n_sources":1,"country":"ID","level":"city"}},{"type":"Feature","geometry":{"type":"Point","coordinates":[87.5196,21.6278]},"properties":{"id":"912a6be42942","kind":"seizure","date":"2026-09-14","summary":"Seizure · Primates · Digha","species":"primates","n_sources":1,"country":"IN","level":"city"}},{"type":"Feature","geometry":{"type":"Point","coordinates":[85.28,23.61]},"properties":{"id":"f720ab255ab9","kind":"seizure","date":"2026-09-14","summary":"Seizure · Primates · Jharkhand","species":"primates","n_sources":1,"country":"IN","level":"state"}},{"type":"Feature","geometry":{"type":"Point","coordinates":[81.95,18.25]},"properties":{"id":"1fb9fb06320f","kind":"seizure","date":"2026-09-13","summary":"Seizure · Pangolin · 352 scales · Malkangiri","species":"pangolin","n_sources":5,"country":"IN","level":"district"}},{"type":"Feature","geometry":{"type":"Point","coordinates":[114.59,-0.28]},"properties":{"id":"aac12945efc9","kind":"conviction","date":"2026-09-11","summary":"Conviction · Elephant (ivory) · Kalimantan","species":"elephant","n_sources":1,"country":"ID","level":"region"}},{"type":"Feature","geometry":{"type":"Point","coordinates":[91.8271,25.89]},"properties":{"id":"939917c95000","kind":"seizure","date":"2026-09-10","summary":"Seizure · Pangolin, Tokay gecko · 14.68 kg · Ri-Bhoi","species":"pangolin,tokay_gecko","n_sources":3,"country":"IN","level":"district"}},{"type":"Feature","geometry":{"type":"Point","coordinates":[103.82,1.35]},"properties":{"id":"6f243fcd7adc","kind":"conviction","date":"2026-09-10","summary":"Conviction · Elephant (ivory) · Singapore","species":"elephant","n_sources":3,"country":"SG","level":"country"}},{"type":"Feature","geometry":{"type":"Point","coordinates":[103.82,1.35]},"properties":{"id":"849145a85e67","kind":"conviction","date":"2026-09-10","summary":"Conviction · Elephant (ivory) · Singapore","species":"elephant","n_sources":1,"country":"SG","level":"country"}},{"type":"Feature","geometry":{"type":"Point","coordinates":[90.36,23.68]},"properties":{"id":"34bed7aa8d11","kind":"rescue","date":"2026-09-10","summary":"Rescue · Parakeets & songbirds · 103 parakeets · Bangladesh","species":"birds","n_sources":1,"country":"BD","level":"country"}},{"type":"Feature","geometry":{"type":"Point","coordinates":[77.3546,11.1154]},"properties":{"id":"03ba66f09ea9","kind":"arrest","date":"2026-09-09","summary":"Arrest · Elephant (ivory) · Tiruppur","species":"elephant","n_sources":2,"country":"IN","level":"city"}},{"type":"Feature","geometry":{"type":"Point","coordinates":[100.5,13.76]},"properties":{"id":"a687444fdb7b","kind":"seizure","date":"2026-09-09","summary":"Seizure · Hornbills, Primates · Bangkok","species":"hornbill,primates","n_sources":3,"country":"TH","level":"city"}},{"type":"Feature","geometry":{"type":"Point","coordinates":[77.59,12.97]},"properties":{"id":"5ec227adefdd","kind":"seizure","date":"2026-09-08","summary":"Seizure · Turtles & tortoises · 180 live · Bengaluru","species":"turtles","n_sources":5,"country":"IN","level":"city"}},{"type":"Feature","geometry":{"type":"Point","coordinates":[82.5716,18.8563]},"properties":{"id":"b07f77933901","kind":"seizure","date":"2026-09-08","summary":"Seizure · Leopard · Jeypore","species":"leopard","n_sources":2,"country":"IN","level":"city"}},{"type":"Feature","geometry":{"type":"Point","coordinates":[71.19,22.26]},"properties":{"id":"d36338c0ca13","kind":"seizure","date":"2026-09-08","summary":"Seizure · Leopard · Gujarat","species":"leopard","n_sources":2,"country":"IN","level":"state"}},{"type":"Feature","geometry":{"type":"Point","coordinates":[86.9335,21.4927]},"properties":{"id":"ff8a975b26a9","kind":"seizure","date":"2026-09-08","summary":"Seizure · Primates · Balasore","species":"primates","n_sources":31,"country":"IN","level":"city"}},{"type":"Feature","geometry":{"type":"Point","coordinates":[76.9667,9.85]},"properties":{"id":"6e8a8d6ee24d","kind":"arrest","date":"2026-09-07","summary":"Arrest · Elephant (ivory) · Idukki","species":"elephant","n_sources":1,"country":"IN","level":"city"}},{"type":"Feature","geometry":{"type":"Point","coordinates":[92.9643,26.7675]},"properties":{"id":"b996481570b9","kind":"arrest","date":"2026-09-05","summary":"Arrest · Tokay gecko · 12 geckos · Sonitpur","species":"tokay_gecko","n_sources":2,"country":"IN","level":"district"}},{"type":"Feature","geometry":{"type":"Point","coordinates":[81.3619,23.2936]},"properties":{"id":"52fd05f92132","kind":"arrest","date":"2026-09-05","summary":"Arrest · Tiger · Shahdol","species":"tiger","n_sources":1,"country":"IN","level":"city"}},{"type":"Feature","geometry":{"type":"Point","coordinates":[79.99,14.44]},"properties":{"id":"72f9ebe1dce2","kind":"seizure","date":"2026-09-04","summary":"Seizure · Red sanders · 20 logs · Nellore","species":"red_sanders","n_sources":3,"country":"IN","level":"city"}},{"type":"Feature","geometry":{"type":"Point","coordinates":[78.67,22.35]},"properties":{"id":"cd474874ff08","kind":"arrest","date":"2026-09-01","summary":"Arrest · Pangolin · India","species":"pangolin","n_sources":1,"country":"IN","level":"country"}},{"type":"Feature","geometry":{"type":"Point","coordinates":[78.8214,10.3813]},"properties":{"id":"fa905202ee09","kind":"arrest","date":"2026-08-29","summary":"Arrest · Monitor lizard · Pudukkottai","species":"monitor_lizard","n_sources":2,"country":"IN","level":"city"}},{"type":"Feature","geometry":{"type":"Point","coordinates":[22.94,-30.56]},"properties":{"id":"b6c4079f759c","kind":"arrest","date":"2026-08-29","summary":"Arrest · Pangolin · South Africa","species":"pangolin","n_sources":4,"country":"ZA","level":"country"}},{"type":"Feature","geometry":{"type":"Point","coordinates":[81.4918,20.2719]},"properties":{"id":"d2b5a415883b","kind":"seizure","date":"2026-08-29","summary":"Seizure · Pangolin · Kānker","species":"pangolin","n_sources":1,"country":"IN","level":"city"}},{"type":"Feature","geometry":{"type":"Point","coordinates":[81.87,21.28]},"properties":{"id":"694398508595","kind":"arrest","date":"2026-08-28","summary":"Arrest · Tiger · Chhattisgarh","species":"tiger","n_sources":2,"country":"IN","level":"state"}},{"type":"Feature","geometry":{"type":"Point","coordinates":[77.3021,12.0874]},"properties":{"id":"0097982baf54","kind":"seizure","date":"2026-08-28","summary":"Seizure · Pangolin · Hanūr","species":"pangolin","n_sources":1,"country":"IN","level":"city"}},{"type":"Feature","geometry":{"type":"Point","coordinates":[79.42,13.63]},"properties":{"id":"8349ac620b23","kind":"arrest","date":"2026-08-28","summary":"Arrest · Red sanders · Tirupati","species":"red_sanders","n_sources":1,"country":"IN","level":"city"}},{"type":"Feature","geometry":{"type":"Point","coordinates":[113.92,-0.79]},"properties":{"id":"bf65ad933bd3","kind":"seizure","date":"2026-08-27","summary":"Seizure · Pangolin · Indonesia","species":"pangolin","n_sources":1,"country":"ID","level":"country"}},{"type":"Feature","geometry":{"type":"Point","coordinates":[81.87,21.28]},"properties":{"id":"73938a976378","kind":"arrest","date":"2026-08-27","summary":"Arrest · Monitor lizard · Chhattisgarh","species":"monitor_lizard","n_sources":1,"country":"IN","level":"state"}},{"type":"Feature","geometry":{"type":"Point","coordinates":[78.67,22.35]},"properties":{"id":"8af70a535b32","kind":"seizure","date":"2026-08-27","summary":"Seizure · Turtles & tortoises · India","species":"turtles","n_sources":1,"country":"IN","level":"country"}},{"type":"Feature","geometry":{"type":"Point","coordinates":[78.67,22.35]},"properties":{"id":"ff4d629d2103","kind":"seizure","date":"2026-08-27","summary":"Seizure · Leopard · India","species":"leopard","n_sources":1,"country":"IN","level":"country"}},{"type":"Feature","geometry":{"type":"Point","coordinates":[80.6198,17.5546]},"properties":{"id":"fe354cd25193","kind":"arrest","date":"2026-08-24","summary":"Arrest · Leopard · 17 claws · Bhadradri Kothagudem","species":"leopard","n_sources":4,"country":"IN","level":"district"}},{"type":"Feature","geometry":{"type":"Point","coordinates":[82.5,20.6]},"properties":{"id":"4a3eeb399e57","kind":"arrest","date":"2026-08-24","summary":"Arrest · Pangolin · Nuapada","species":"pangolin","n_sources":1,"country":"IN","level":"district"}},{"type":"Feature","geometry":{"type":"Point","coordinates":[78.67,22.35]},"properties":{"id":"5641330d79f7","kind":"arrest","date":"2026-08-24","summary":"Arrest · Pangolin · India","species":"pangolin","n_sources":1,"country":"IN","level":"country"}},{"type":"Feature","geometry":{"type":"Point","coordinates":[77.21,28.61]},"properties":{"id":"84548637adad","kind":"arrest","date":"2026-08-17","summary":"Arrest · Leopard · Delhi","species":"leopard","n_sources":1,"country":"IN","level":"city"}},{"type":"Feature","geometry":{"type":"Point","coordinates":[77.6246,30.4367]},"properties":{"id":"ad352b7d4345","kind":"arrest","date":"2026-07-18","summary":"Arrest · Monitor lizard · 4 lizards · Pāonta Sāhib","species":"monitor_lizard","n_sources":1,"country":"IN","level":"city"}}]}